{
"type": "FeatureCollection",
"name": "refinement_coast_v2",
"crs": { "type": "name", "properties": { "name": "urn:ogc:def:crs:EPSG::32618" } },
"features": [
{ "type": "Feature", "properties": { "name": "shelf_bay", "refinement_level": 1, "zmin": -1000000000.0, "zmax": 1000000000.0, "why": null }, "geometry": { "type": "Polygon", "coordinates": [ [ [ 580914.63149938127026, 4444838.520075161010027 ], [ 580641.020642725285143, 4470368.027428331784904 ], [ 579791.766217025578953, 4470360.008608249016106 ], [ 579638.56243832281325, 4484789.109245677478611 ], [ 598277.739720409153961, 4485011.018864679150283 ], [ 598800.834785279817879, 4445090.170986975543201 ], [ 580914.63149938127026, 4444838.520075161010027 ] ] ] } },
{ "type": "Feature", "properties": { "name": "coastal_corridor", "refinement_level": 2, "zmin": -20.0, "zmax": 30.0, "why": null }, "geometry": { "type": "Polygon", "coordinates": [ [ [ 580641.020642725285143, 4470368.027428331784904 ], [ 579791.766217025578953, 4470360.008608249016106 ], [ 579638.56243832281325, 4484789.109245677478611 ], [ 595800.834785279817879, 4484981.52995419036597 ], [ 595800.834785279817879, 4445047.962323495186865 ], [ 580914.63149938127026, 4444838.520075161010027 ], [ 580641.020642725285143, 4470368.027428331784904 ] ] ] } },
{ "type": "Feature", "properties": { "name": "surf_dune", "refinement_level": 3, "zmin": -8.0, "zmax": 3.0, "why": null }, "geometry": { "type": "Polygon", "coordinates": [ [ [ 580914.63149938127026, 4444838.520075161010027 ], [ 580641.020642725285143, 4470368.027428331784904 ], [ 579791.766217025578953, 4470360.008608249016106 ], [ 579638.56243832281325, 4484789.109245677478611 ], [ 598277.739720409153961, 4485011.018864679150283 ], [ 598800.834785279817879, 4445090.170986975543201 ], [ 580914.63149938127026, 4444838.520075161010027 ] ] ] } },
{ "type": "Feature", "properties": { "name": "raritan_approach", "refinement_level": 1, "zmin": -30.0, "zmax": 15.0, "why": null }, "geometry": { "type": "Polygon", "coordinates": [ [ [ 588944.908289142418653, 4486004.281265298835933 ], [ 589129.696431707823649, 4470464.020306430757046 ], [ 561117.211109697818756, 4470183.679945140145719 ], [ 560990.508614382473752, 4485723.719275910407305 ], [ 588944.908289142418653, 4486004.281265298835933 ] ] ] } },
{ "type": "Feature", "properties": { "name": "raritan_bay", "refinement_level": 2, "zmin": -20.0, "zmax": 3.0, "why": null }, "geometry": { "type": "Polygon", "coordinates": [ [ [ 561947.739640853134915, 4472410.622672625817358 ], [ 561837.606202208669856, 4485730.683841107413173 ], [ 587250.6904611781938, 4485984.298764759674668 ], [ 587406.094605048419908, 4472664.066243222914636 ], [ 561947.739640853134915, 4472410.622672625817358 ] ] ] } },
{ "type": "Feature", "properties": { "name": "bay_shore", "refinement_level": 3, "zmin": -2.0, "zmax": 3.0, "why": null }, "geometry": { "type": "Polygon", "coordinates": [ [ [ 588944.908289142418653, 4486004.281265298835933 ], [ 589129.696431707823649, 4470464.020306430757046 ], [ 561117.211109697818756, 4470183.679945140145719 ], [ 560990.508614382473752, 4485723.719275910407305 ], [ 588944.908289142418653, 4486004.281265298835933 ] ] ] } },
{ "type": "Feature", "properties": { "name": "s_shelf", "refinement_level": 1, "zmin": -20.0, "zmax": 2.0, "why": "100 m across the shoaling band; deeper than -20 m stays at the 200 m base, because shelf wave refraction varies on km scales." }, "geometry": { "type": "Polygon", "coordinates": [ [ [ 586000.0, 4394000.0 ], [ 574720.0, 4394000.0 ], [ 583040.0, 4446000.0 ], [ 586000.0, 4446000.0 ], [ 586000.0, 4394000.0 ] ] ] } },
{ "type": "Feature", "properties": { "name": "s_coastal", "refinement_level": 2, "zmin": -20.0, "zmax": 5.0, "why": "50 m over the bay floor, marsh, barrier and low floodplain — the working resolution for the lagoon interior." }, "geometry": { "type": "Polygon", "coordinates": [ [ [ 600000.0, 4394000.0 ], [ 600000.0, 4446000.0 ], [ 562000.0, 4446000.0 ], [ 562000.0, 4394000.0 ], [ 600000.0, 4394000.0 ] ] ] } },
{ "type": "Feature", "properties": { "name": "s_upland", "refinement_level": 1, "zmin": 3.0, "zmax": 9.0, "why": "100 m on higher inland ground, purely so land steps 50 -> 100 -> 200 m instead of jumping two levels at once." }, "geometry": { "type": "Polygon", "coordinates": [ [ [ 600000.0, 4394000.0 ], [ 600000.0, 4446000.0 ], [ 562000.0, 4446000.0 ], [ 562000.0, 4394000.0 ], [ 600000.0, 4394000.0 ] ] ] } },
{ "type": "Feature", "properties": { "name": "s_surf_dune", "refinement_level": 3, "zmin": -8.0, "zmax": 3.0, "why": "25 m in the surf zone, foredune and barrier — seaward of the sloped barrier line so this gate cannot reach into the bay, which shares its depth band." }, "geometry": { "type": "Polygon", "coordinates": [ [ [ 574720.0, 4394000.0 ], [ 600000.0, 4394000.0 ], [ 600000.0, 4446000.0 ], [ 583040.0, 4446000.0 ], [ 574720.0, 4394000.0 ] ] ] } },
{ "type": "Feature", "properties": { "name": "s_bay_fringe", "refinement_level": 3, "zmin": -0.8, "zmax": 2.0, "why": "25 m on the bay MARGIN only (-0.8..+2 m): shoreline, marsh and mudflat. The lagoon interior is deeper than -0.8 m so it stays at 50 m." }, "geometry": { "type": "Polygon", "coordinates": [ [ [ 562000.0, 4394000.0 ], [ 574720.0, 4394000.0 ], [ 583040.0, 4446000.0 ], [ 562000.0, 4446000.0 ], [ 562000.0, 4394000.0 ] ] ] } }
]
}
