{
"type": "FeatureCollection",
"name": "flux_crosssections",
"crs": { "type": "name", "properties": { "name": "urn:ogc:def:crs:EPSG::32618" } },
"features": [
{ "type": "Feature", "properties": { "name": "barrier" }, "geometry": { "type": "LineString", "coordinates": [ [ 586843.817752231378108, 4462500.0 ], [ 586842.531480044126511, 4462600.0 ], [ 586841.245207856991328, 4462700.0 ], [ 586889.311663164640777, 4462800.0 ], [ 586838.02952738897875, 4462900.0 ], [ 586837.386391295352951, 4463000.0 ], [ 586886.095982696628198, 4463100.0 ], [ 586884.166574415867217, 4463200.0 ], [ 586883.523438322241418, 4463300.0 ], [ 586882.23716613498982, 4463400.0 ], [ 586930.946757536381483, 4463500.0 ], [ 586929.017349255504087, 4463600.0 ], [ 586928.374213161994703, 4463700.0 ], [ 586926.444804881233722, 4463800.0 ], [ 586925.801668787607923, 4463900.0 ], [ 586974.511260188999586, 4464000.0 ], [ 586936.210442380513996, 4464100.0 ], [ 587034.272761276806705, 4464200.0 ], [ 587057.662852837122045, 4464300.0 ], [ 587031.378648855607025, 4464400.0 ], [ 587056.055012603057548, 4464500.0 ], [ 587103.799899864010513, 4464600.0 ], [ 587103.156763770384714, 4464700.0 ], [ 587114.208673456916586, 4464800.0 ], [ 587150.25851493771188, 4464900.0 ], [ 587149.615378844086081, 4465000.0 ], [ 586823.355993331409991, 4465100.0 ], [ 586796.107085209456272, 4465200.0 ], [ 586795.785517162759788, 4465300.0 ], [ 586768.858177087618969, 4465400.0 ], [ 587142.54088181455154, 4465500.0 ], [ 587141.254609627299942, 4465600.0 ], [ 587089.6509058047086, 4465700.0 ], [ 587113.36256541183684, 4465800.0 ], [ 587162.072156813112088, 4465900.0 ], [ 587161.107452672673389, 4466000.0 ], [ 587160.464316579164006, 4466100.0 ], [ 587158.21334025147371, 4466200.0 ], [ 587157.891772204660811, 4466300.0 ], [ 587156.283931970712729, 4466400.0 ], [ 587179.995591577840969, 4466500.0 ], [ 587178.709319390705787, 4466600.0 ], [ 587177.423047203454189, 4466700.0 ], [ 587176.136775016202591, 4466800.0 ], [ 587174.850502829067409, 4466900.0 ], [ 587172.921094548190013, 4467000.0 ], [ 587221.630685949581675, 4467100.0 ], [ 587196.311186108505353, 4467200.0 ], [ 587194.060209780931473, 4467300.0 ], [ 587218.093437434756197, 4467400.0 ], [ 587266.803028836031444, 4467500.0 ], [ 587240.19725680781994, 4467600.0 ], [ 587239.875688761007041, 4467700.0 ], [ 587212.948348685866222, 4467800.0 ], [ 587223.678690325585194, 4467900.0 ], [ 587223.035554231959395, 4468000.0 ], [ 587258.763827666058205, 4468100.0 ], [ 587258.442259619245306, 4468200.0 ], [ 587206.516987749841064, 4468300.0 ], [ 587217.890465483185835, 4468400.0 ], [ 587253.940306963981129, 4468500.0 ], [ 587227.977671029279009, 4468600.0 ], [ 587176.052399159991182, 4468700.0 ], [ 586812.135331932222471, 4468800.0 ], [ 586810.849059745087288, 4468900.0 ], [ 586710.2141964744078, 4469000.0 ], [ 586758.923787875683047, 4469100.0 ], [ 586744.656197721255012, 4469200.0 ], [ 586744.013061627629213, 4469300.0 ], [ 586743.048357487190515, 4469400.0 ], [ 587153.745607835357077, 4469500.0 ], [ 587114.480085886549205, 4469600.0 ], [ 587113.193813699297607, 4469700.0 ], [ 587112.872245652484708, 4469800.0 ], [ 587110.621269324910827, 4469900.0 ], [ 587109.978133231285028, 4470000.0 ], [ 587109.01342909084633, 4470100.0 ], [ 587107.084020810085349, 4470200.0 ], [ 587080.478248781757429, 4470300.0 ], [ 587091.530158468289301, 4470400.0 ], [ 587090.887022374663502, 4470500.0 ], [ 587088.957614093902521, 4470600.0 ], [ 587050.335228238720447, 4470700.0 ], [ 587050.013660191907547, 4470800.0 ], [ 587073.403751752106473, 4470900.0 ], [ 587046.476411677082069, 4471000.0 ], [ 587045.83327558345627, 4471100.0 ], [ 587044.868571443017572, 4471200.0 ], [ 587043.58229925588239, 4471300.0 ], [ 587016.97652722755447, 4471400.0 ], [ 587015.690255040419288, 4471500.0 ], [ 587014.72555089998059, 4471600.0 ], [ 586988.11977887165267, 4471700.0 ], [ 586986.833506684517488, 4471800.0 ], [ 586960.227734656189568, 4471900.0 ], [ 586959.58459856256377, 4472000.0 ] ] } },
{ "type": "Feature", "properties": { "name": "throat" }, "geometry": { "type": "LineString", "coordinates": [ [ 586420.0, 4472000.0 ], [ 586959.58459856256377, 4472000.0 ] ] } }
]
}
